{
  "type": "FeatureCollection",
  "features": [
    {
      "type": "Feature",
      "properties": {
        "norad_id": 29994,
        "name": "FENGYUN 1C DEB",
        "group": "fengyun-1c-debris",
        "lat": -56.100641043639975,
        "lon": 30.389444441012404,
        "alt_km": 880.0173258547566,
        "timestamp": "2025-12-10T16:57:11.909722+00:00",
        "meta_object_name": "FENGYUN 1C DEB",
        "meta_object_id": "1999-025LU",
        "meta_epoch": "2025-12-10T12:51:34.771104",
        "meta_mean_motion": 14.02642332,
        "meta_eccentricity": 0.0129518,
        "meta_inclination": 98.8297,
        "meta_ra_of_asc_node": 16.8493,
        "meta_arg_of_pericenter": 219.785,
        "meta_mean_anomaly": 300.8586,
        "meta_ephemeris_type": 0,
        "meta_classification_type": "U",
        "meta_norad_cat_id": 29994,
        "meta_element_set_no": 999,
        "meta_rev_at_epoch": 96695,
        "meta_bstar": 0.00024335,
        "meta_mean_motion_dot": 3.61e-06,
        "meta_mean_motion_ddot": 0,
        "tle_line1": "1 29994U 99025LU  25344.53581911  .00000361  00000+0  24335-3 0  9998",
        "tle_line2": "2 29994  98.8297  16.8493 0129518 219.7850 300.8586 14.02642332966959"
      },
      "geometry": {
        "type": "Point",
        "coordinates": [
          30.389444441012404,
          -56.100641043639975
        ]
      }
    },
    {
      "type": "Feature",
      "properties": {
        "norad_id": 29996,
        "name": "FENGYUN 1C DEB",
        "group": "fengyun-1c-debris",
        "lat": 69.96287910210978,
        "lon": -4.691596590611723,
        "alt_km": 765.5183445298644,
        "timestamp": "2025-12-10T16:57:11.909732+00:00",
        "meta_object_name": "FENGYUN 1C DEB",
        "meta_object_id": "1999-025LW",
        "meta_epoch": "2025-12-10T01:33:53.896896",
        "meta_mean_motion": 14.0939159,
        "meta_eccentricity": 0.01319313,
        "meta_inclination": 99.3033,
        "meta_ra_of_asc_node": 21.3551,
        "meta_arg_of_pericenter": 95.4228,
        "meta_mean_anomaly": 325.8819,
        "meta_ephemeris_type": 0,
        "meta_classification_type": "U",
        "meta_norad_cat_id": 29996,
        "meta_element_set_no": 999,
        "meta_rev_at_epoch": 96099,
        "meta_bstar": 0.0022898917,
        "meta_mean_motion_dot": 4.285e-05,
        "meta_mean_motion_ddot": 0,
        "tle_line1": "1 29996U 99025LW  25344.06520714  .00004285  00000+0  22899-2 0  9993",
        "tle_line2": "2 29996  99.3033  21.3551 0131931  95.4228 325.8819 14.09391590960999"
      },
      "geometry": {
        "type": "Point",
        "coordinates": [
          -4.691596590611723,
          69.96287910210978
        ]
      }
    },
    {
      "type": "Feature",
      "properties": {
        "norad_id": 29997,
        "name": "FENGYUN 1C DEB",
        "group": "fengyun-1c-debris",
        "lat": 30.675340162436342,
        "lon": -179.46746713221611,
        "alt_km": 947.2568462221197,
        "timestamp": "2025-12-10T16:57:11.909742+00:00",
        "meta_object_name": "FENGYUN 1C DEB",
        "meta_object_id": "1999-025LX",
        "meta_epoch": "2025-12-10T11:50:32.014176",
        "meta_mean_motion": 14.00869696,
        "meta_eccentricity": 0.0080265,
        "meta_inclination": 98.8814,
        "meta_ra_of_asc_node": 355.0037,
        "meta_arg_of_pericenter": 333.6135,
        "meta_mean_anomaly": 181.7324,
        "meta_ephemeris_type": 0,
        "meta_classification_type": "U",
        "meta_norad_cat_id": 29997,
        "meta_element_set_no": 999,
        "meta_rev_at_epoch": 96358,
        "meta_bstar": 0.0011228,
        "meta_mean_motion_dot": 1.682e-05,
        "meta_mean_motion_ddot": 0,
        "tle_line1": "1 29997U 99025LX  25344.49342609  .00001682  00000+0  11228-2 0  9998",
        "tle_line2": "2 29997  98.8814 355.0037 0080265 333.6135 181.7324 14.00869696963580"
      },
      "geometry": {
        "type": "Point",
        "coordinates": [
          -179.46746713221611,
          30.675340162436342
        ]
      }
    },
    {
      "type": "Feature",
      "properties": {
        "norad_id": 29998,
        "name": "FENGYUN 1C DEB",
        "group": "fengyun-1c-debris",
        "lat": -16.753432448779648,
        "lon": -137.86049023464844,
        "alt_km": 802.5896479262292,
        "timestamp": "2025-12-10T16:57:11.909752+00:00",
        "meta_object_name": "FENGYUN 1C DEB",
        "meta_object_id": "1999-025LY",
        "meta_epoch": "2025-12-10T10:59:28.348800",
        "meta_mean_motion": 14.28529788,
        "meta_eccentricity": 0.0004717,
        "meta_inclination": 99.3062,
        "meta_ra_of_asc_node": 44.7041,
        "meta_arg_of_pericenter": 307.2329,
        "meta_mean_anomaly": 52.8419,
        "meta_ephemeris_type": 0,
        "meta_classification_type": "U",
        "meta_norad_cat_id": 29998,
        "meta_element_set_no": 999,
        "meta_rev_at_epoch": 97842,
        "meta_bstar": 0.0012591,
        "meta_mean_motion_dot": 3.108e-05,
        "meta_mean_motion_ddot": 0,
        "tle_line1": "1 29998U 99025LY  25344.45796700  .00003108  00000+0  12591-2 0  9999",
        "tle_line2": "2 29998  99.3062  44.7041 0004717 307.2329  52.8419 14.28529788978426"
      },
      "geometry": {
        "type": "Point",
        "coordinates": [
          -137.86049023464844,
          -16.753432448779648
        ]
      }
    },
    {
      "type": "Feature",
      "properties": {
        "norad_id": 29999,
        "name": "FENGYUN 1C DEB",
        "group": "fengyun-1c-debris",
        "lat": 12.879066051224035,
        "lon": -32.94541352665896,
        "alt_km": 890.7895645044255,
        "timestamp": "2025-12-10T16:57:11.909763+00:00",
        "meta_object_name": "FENGYUN 1C DEB",
        "meta_object_id": "1999-025LZ",
        "meta_epoch": "2025-12-10T10:49:34.099104",
        "meta_mean_motion": 14.2012927,
        "meta_eccentricity": 0.0189488,
        "meta_inclination": 98.5762,
        "meta_ra_of_asc_node": 328.7843,
        "meta_arg_of_pericenter": 133.1542,
        "meta_mean_anomaly": 17.4246,
        "meta_ephemeris_type": 0,
        "meta_classification_type": "U",
        "meta_norad_cat_id": 29999,
        "meta_element_set_no": 999,
        "meta_rev_at_epoch": 97691,
        "meta_bstar": 0.00038754,
        "meta_mean_motion_dot": 9.47e-06,
        "meta_mean_motion_ddot": 0,
        "tle_line1": "1 29999U 99025LZ  25344.45108911  .00000947  00000+0  38754-3 0  9999",
        "tle_line2": "2 29999  98.5762 328.7843 0189488 133.1542  17.4246 14.20129270976913"
      },
      "geometry": {
        "type": "Point",
        "coordinates": [
          -32.94541352665896,
          12.879066051224035
        ]
      }
    },
    {
      "type": "Feature",
      "properties": {
        "norad_id": 30001,
        "name": "FENGYUN 1C DEB",
        "group": "fengyun-1c-debris",
        "lat": -8.310312152488926,
        "lon": -121.65574840583444,
        "alt_km": 764.1888260149217,
        "timestamp": "2025-12-10T16:57:11.909774+00:00",
        "meta_object_name": "FENGYUN 1C DEB",
        "meta_object_id": "1999-025MA",
        "meta_epoch": "2025-12-10T11:08:19.394304",
        "meta_mean_motion": 14.38521096,
        "meta_eccentricity": 0.0038227,
        "meta_inclination": 98.9589,
        "meta_ra_of_asc_node": 59.4119,
        "meta_arg_of_pericenter": 105.3706,
        "meta_mean_anomaly": 268.5392,
        "meta_ephemeris_type": 0,
        "meta_classification_type": "U",
        "meta_norad_cat_id": 30001,
        "meta_element_set_no": 999,
        "meta_rev_at_epoch": 97399,
        "meta_bstar": 0.0040822,
        "meta_mean_motion_dot": 0.00012559,
        "meta_mean_motion_ddot": 0,
        "tle_line1": "1 30001U 99025MA  25344.46411336  .00012559  00000+0  40822-2 0  9994",
        "tle_line2": "2 30001  98.9589  59.4119 0038227 105.3706 268.5392 14.38521096973998"
      },
      "geometry": {
        "type": "Point",
        "coordinates": [
          -121.65574840583444,
          -8.310312152488926
        ]
      }
    },
    {
      "type": "Feature",
      "properties": {
        "norad_id": 30003,
        "name": "FENGYUN 1C DEB",
        "group": "fengyun-1c-debris",
        "lat": 20.411651383836396,
        "lon": -44.139384458736956,
        "alt_km": 968.5699235764432,
        "timestamp": "2025-12-10T16:57:11.909784+00:00",
        "meta_object_name": "FENGYUN 1C DEB",
        "meta_object_id": "1999-025MC",
        "meta_epoch": "2025-12-10T12:11:59.725824",
        "meta_mean_motion": 13.85621323,
        "meta_eccentricity": 0.0143345,
        "meta_inclination": 99.5764,
        "meta_ra_of_asc_node": 319.2601,
        "meta_arg_of_pericenter": 125.7412,
        "meta_mean_anomaly": 349.2375,
        "meta_ephemeris_type": 0,
        "meta_classification_type": "U",
        "meta_norad_cat_id": 30003,
        "meta_element_set_no": 999,
        "meta_rev_at_epoch": 95457,
        "meta_bstar": 0.00040293,
        "meta_mean_motion_dot": 4.53e-06,
        "meta_mean_motion_ddot": 0,
        "tle_line1": "1 30003U 99025MC  25344.50833016  .00000453  00000+0  40293-3 0  9997",
        "tle_line2": "2 30003  99.5764 319.2601 0143345 125.7412 349.2375 13.85621323954579"
      },
      "geometry": {
        "type": "Point",
        "coordinates": [
          -44.139384458736956,
          20.411651383836396
        ]
      }
    }
  ]
}